FENGYUN 3A              
1 32958U 08026A   26201.80885957  .00000035  00000+0  37299-4 0  9995
2 32958  98.6886 142.0143 0009454  37.1178 323.0651 14.19577262940173
EWS-G3 (GOES 14)        
1 35491U 09033A   26201.92752701 -.00000360  00000+0  00000+0 0  9999
2 35491   1.7746  82.6256 0002156  39.0794 272.3629  1.00095663  6922
EWS-G2 (GOES 15)        
1 36411U 10008A   26201.91600029  .00000022  00000+0  00000+0 0  9994
2 36411   1.3686  82.3995 0005449  53.6341 195.6588  1.00269471 59973
FENGYUN 3B              
1 37214U 10059A   26201.97699168 -.00000013  00000+0  16369-4 0  9991
2 37214  98.9601 248.1315 0023220  91.1327  27.1140 14.14848233812204
EXACTVIEW-1 (ADS-1B)    
1 38709U 12039C   26201.87400145  .00000051  00000+0  41697-4 0  9998
2 38709  98.9810 320.0303 0011885  76.6312 283.6191 14.24993201727509
DUBAISAT-2              
1 39419U 13066D   26201.92649615  .00001884  00000+0  11844-3 0  9996
2 39419  97.4585 191.1949 0009249 278.9763  81.0419 15.10394433691480
FENGYUN 2G              
1 40367U 14090A   26200.64000413 -.00000309  00000+0  00000+0 0  9993
2 40367   5.7192  72.4242 0003943 173.6464  21.2039  1.00279249 42329
ELEKTRO-L 2             
1 41105U 15074A   26201.82932766 -.00000122  00000+0  00000+0 0  9996
2 41105   6.7766  70.1096 0000802 228.6874 283.8681  1.00272327 38848
FENGYUN 2H              
1 43491U 18050A   26201.93615543 -.00000128  00000+0  00000+0 0  9992
2 43491   3.1164  78.6820 0002087 128.8299 147.2467  1.00267074 29778
EOS-4                   
1 51656U 22013A   26201.96668804  .00001000  00000+0  60768-4 0  9990
2 51656  97.5120 208.1003 0002029  91.4475 268.6988 15.12731407244598
